OBJECT_NAME,OBJECT_ID,EPOCH,MEAN_MOTION,ECCENTRICITY,INCLINATION,RA_OF_ASC_NODE,ARG_OF_PERICENTER,MEAN_ANOMALY,EPHEMERIS_TYPE,CLASSIFICATION_TYPE,NORAD_CAT_ID,ELEMENT_SET_NO,REV_AT_EPOCH,BSTAR,MEAN_MOTION_DOT,MEAN_MOTION_DDOT
LEMUR-2-CELIJO-SB-PK,2025-276DW,2026-07-04T10:43:06.273696,15.00190777,.00075872,97.5205,255.6558,90.9208,269.2885,0,U,66781,999,2521,.77670934E-3,.9663E-4,0
LEMUR-2-FINNIAN,2025-276DX,2026-07-04T02:03:35.587584,15.00507764,.00083208,97.5332,255.5473,39.2121,320.9704,0,U,66782,999,2253,.28654186E-3,.3556E-4,0
LEMUR-2-STARLIGHT,2025-276DY,2026-07-04T10:58:46.906176,14.99246364,.00145994,97.5224,255.5056,78.2927,281.9933,0,U,66783,999,3278,.74169645E-3,.9013E-4,0
LEMUR-2-TARTIFLETTE,2025-276DZ,2026-07-04T10:56:21.659136,14.99248120,.00136803,97.5228,255.5123,86.0157,274.2631,0,U,66784,999,3278,.69021659E-3,.8381E-4,0
LEMUR-2-VUKASIN,2025-276EA,2026-07-02T04:01:06.227616,15.00442804,.00049534,97.5271,253.6348,89.5693,270.6099,0,U,66785,999,3239,.15220199E-3,.1857E-4,0
LEMUR-2-HOTSPUR-TOM,2025-276EB,2026-07-04T10:47:19.569984,14.99151552,.00140682,97.5220,255.4836,77.4570,282.8226,0,U,66786,999,3271,.70946521E-3,.8596E-4,0
LEMUR-2-MYRA,2025-276EC,2026-07-03T17:36:09.038016,15.00477728,.00182909,97.5212,255.0731,89.0099,271.3220,0,U,66787,999,3269,.69490641E-3,.8728E-4,0
LEMUR-2 FIKRETDENGIZ,2026-004A,2026-07-04T09:53:17.217312,14.88457050,.00105956,97.8022,183.7065,85.6644,274.5784,0,U,67363,999,2584,.65112355E-3,.5997E-4,0
TWILIGHT-1 OBJECT B,2026-004B,2026-07-04T10:39:22.632480,14.87765906,.00102154,97.8066,183.7449,76.1367,284.0985,0,U,67364,999,2585,.25442776E-3,.2269E-4,0
LEMUR-2-MARIO-SOUSA,2026-004C,2026-07-04T06:12:51.782688,14.88656731,.00101645,97.7993,183.5511,87.1763,273.0617,0,U,67365,999,2583,.63845292E-3,.5908E-4,0
LEMUR-2-SONNENBLUME,2026-004E,2026-07-04T06:14:11.582592,14.88408585,.00097148,97.7989,183.5297,88.2038,272.0292,0,U,67367,999,2583,.39859553E-3,.3644E-4,0
LEMUR-2-WOBLER,2026-004F,2026-07-03T13:53:21.408864,14.88632236,.00099432,97.8041,182.9982,81.5968,278.6376,0,U,67368,999,2573,.4672853E-3,.4306E-4,0
LEMUR-2-GRAM-E-SUE,2026-004H,2026-07-04T10:39:17.209152,14.88552391,.00088669,97.7975,183.7269,89.9779,270.2454,0,U,67370,999,2586,.32658665E-3,.2986E-4,0
LEMUR-2-KATIE,2026-004AA,2026-07-04T09:54:24.209280,14.90176316,.00043613,97.8040,184.2119,58.5776,301.5868,0,U,67387,999,2587,.794459E-3,.7645E-4,0
LEMUR-2-HCS-BAZUS,2026-004AB,2026-07-04T06:38:54.173760,14.90218755,.00037789,97.8027,184.0575,57.3737,302.7846,0,U,67388,999,2585,.40029038E-3,.3827E-4,0
