LEMUR-2-CELIJO-SB-PK    
1 66781U 25276DW  26185.44660039  .00009663  00000+0  77671-3 0  9998
2 66781  97.5205 255.6558 0007587  90.9208 269.2885 15.00190777 25216
LEMUR-2-FINNIAN         
1 66782U 25276DX  26185.08582856  .00003556  00000+0  28654-3 0  9991
2 66782  97.5332 255.5473 0008320  39.2121 320.9704 15.00507764 22534
LEMUR-2-STARLIGHT       
1 66783U 25276DY  26185.45748734  .00009013  00000+0  74170-3 0  9990
2 66783  97.5224 255.5056 0014599  78.2927 281.9933 14.99246364 32785
LEMUR-2-TARTIFLETTE     
1 66784U 25276DZ  26185.45580624  .00008381  00000+0  69022-3 0  9990
2 66784  97.5228 255.5123 0013680  86.0157 274.2631 14.99248120 32789
LEMUR-2-VUKASIN         
1 66785U 25276EA  26183.16743319  .00001857  00000+0  15220-3 0  9991
2 66785  97.5271 253.6348 0004953  89.5693 270.6099 15.00442804 32395
LEMUR-2-HOTSPUR-TOM     
1 66786U 25276EB  26185.44953206  .00008596  00000+0  70947-3 0  9997
2 66786  97.5220 255.4836 0014068  77.4570 282.8226 14.99151552 32717
LEMUR-2-MYRA            
1 66787U 25276EC  26184.73343794  .00008728  00000+0  69491-3 0  9993
2 66787  97.5212 255.0731 0018290  89.0099 271.3220 15.00477728 32698
LEMUR-2 FIKRETDENGIZ    
1 67363U 26004A   26185.41200483  .00005997  00000+0  65112-3 0  9998
2 67363  97.8022 183.7065 0010595  85.6644 274.5784 14.88457050 25846
TWILIGHT-1 OBJECT B     
1 67364U 26004B   26185.44401195  .00002269  00000+0  25443-3 0  9997
2 67364  97.8066 183.7449 0010215  76.1367 284.0985 14.87765906 25858
LEMUR-2-MARIO-SOUSA     
1 67365U 26004C   26185.25893267  .00005908  00000+0  63845-3 0  9993
2 67365  97.7993 183.5511 0010164  87.1763 273.0617 14.88656731 25834
LEMUR-2-SONNENBLUME     
1 67367U 26004E   26185.25985628  .00003644  00000+0  39860-3 0  9993
2 67367  97.7989 183.5297 0009714  88.2038 272.0292 14.88408585 25838
LEMUR-2-WOBLER          
1 67368U 26004F   26184.57872001  .00004306  00000+0  46729-3 0  9996
2 67368  97.8041 182.9982 0009943  81.5968 278.6376 14.88632236 25731
LEMUR-2-GRAM-E-SUE      
1 67370U 26004H   26185.44394918  .00002986  00000+0  32659-3 0  9991
2 67370  97.7975 183.7269 0008866  89.9779 270.2454 14.88552391 25863
LEMUR-2-KATIE           
1 67387U 26004AA  26185.41278020  .00007645  00000+0  79446-3 0  9993
2 67387  97.8040 184.2119 0004361  58.5776 301.5868 14.90176316 25870
LEMUR-2-HCS-BAZUS       
1 67388U 26004AB  26185.27701590  .00003827  00000+0  40029-3 0  9994
2 67388  97.8027 184.0575 0003778  57.3737 302.7846 14.90218755 25856
